[{"OBJECT_NAME":"STARLINK-36176","OBJECT_ID":"2025-293Z","EPOCH":"2026-03-09T11:58:33.118752","MEAN_MOTION":14.983336,"ECCENTRICITY":0.00033076,"INCLINATION":70.0005,"RA_OF_ASC_NODE":94.7588,"ARG_OF_PERICENTER":263.525,"MEAN_ANOMALY":96.5533,"EPHEMERIS_TYPE":0,"CLASSIFICATION_TYPE":"U","NORAD_CAT_ID":67026,"ELEMENT_SET_NO":999,"REV_AT_EPOCH":1485,"BSTAR":0.00011101283,"MEAN_MOTION_DOT":1.232e-5,"MEAN_MOTION_DDOT":0},{"OBJECT_NAME":"DELTA 1 DEB","OBJECT_ID":"1975-052MU","EPOCH":"2026-02-28T13:52:08.081184","MEAN_MOTION":15.00067598,"ECCENTRICITY":0.0002701,"INCLINATION":98.1978,"RA_OF_ASC_NODE":183.1796,"ARG_OF_PERICENTER":358.8202,"MEAN_ANOMALY":66.2186,"EPHEMERIS_TYPE":0,"CLASSIFICATION_TYPE":"U","NORAD_CAT_ID":42659,"ELEMENT_SET_NO":999,"REV_AT_EPOCH":66142,"BSTAR":0.00087726141,"MEAN_MOTION_DOT":0.00010875,"MEAN_MOTION_DDOT":0}]
